CUTE-1 (CO-55)          
1 27844U 03031E   23338.49409663  .00000673  00000+0  31804-3 0  9996
2 27844  98.6790 343.2906 0009686 358.8765   1.2390 14.22988122 59956
CUBESAT XI-IV (CO-57)   
1 27848U 03031J   23338.49497162  .00000556  00000+0  26905-3 0  9997
2 27848  98.6823 343.6365 0009886  14.2728 345.8727 14.22469645 59713
CUBESAT XI-V            
1 28895U 05043F   23339.31532562  .00002247  00000+0  41354-3 0  9995
2 28895  98.1753 110.3994 0015042 251.5002 108.4567 14.66515655966119
CUTE-1.7+APD II (CO-65) 
1 32785U 08021C   23338.88944400  .00005345  00000+0  50463-3 0  9999
2 32785  97.7300 301.5953 0009948 255.5759 104.4358 14.94115365846368
AAUSAT-II               
1 32788U 08021F   23338.90619294  .00014730  00000+0  93764-3 0  9994
2 32788  97.5785 315.2250 0008684 118.2839 241.9267 15.08845965848807
SEEDS II (CO-66)        
1 32791U 08021J   23339.41210584  .00007806  00000+0  63831-3 0  9992
2 32791  97.6822 307.5644 0009362 180.5057 179.6159 14.99592734847373
SWISSCUBE               
1 35932U 09051B   23339.07590078  .00001662  00000+0  36984-3 0  9990
2 35932  98.4945 213.3008 0006830 191.5856 168.5186 14.58293772754157
BEESAT-1                
1 35933U 09051C   23339.18945306  .00001395  00000+0  31323-3 0  9996
2 35933  98.4872 214.5623 0004933 201.9054 158.1934 14.58129700754280
ITUPSAT1                
1 35935U 09051E   23338.93109057  .00001351  00000+0  31023-3 0  9994
2 35935  98.4973 214.1767 0007121 212.3622 147.7139 14.57139584753851
TISAT 1                 
1 36799U 10035E   23339.22028723  .00007228  00000+0  60457-3 0  9992
2 36799  98.1112 215.5633 0012252 118.1060 242.1401 14.98749383728021
M-CUBED & EXP-1 PRIME   
1 37855U 11061F   23339.12457774  .00044728  00000+0  99501-3 0  9995
2 37855 101.6961  39.0916 0093341 232.7604 126.5084 15.38960590663205
AEROCUBE 4.5A           
1 38767U 12048K   23338.07140029  .00009586  00000+0  61588-3 0  9996
2 38767  64.6619 221.5805 0103897  92.4267 268.8751 15.04519298230912
AEROCUBE 4.5B           
1 38768U 12048L   23338.89813680  .00017174  00000+0  86407-3 0  9996
2 38768  64.6613 156.0121 0082434  82.2900 278.7574 15.14381437231764
STRAND-1                
1 39090U 13009E   23338.75123104  .00000641  00000+0  23594-3 0  9992
2 39090  98.3802 167.4258 0009889 112.8197 247.4035 14.35801418564194
BRITE-AUSTRIA           
1 39091U 13009F   23338.76682127  .00000435  00000+0  16551-3 0  9995
2 39091  98.3837 166.6926 0011354 119.6419 240.5899 14.35622848564222
BEESAT-3                
1 39135U 13015F   23339.48682550  .00374891  00000+0  16734-2 0  9993
2 39135  64.8406 111.0257 0010440 288.0537  71.9483 15.82936613589019
BEESAT-2                
1 39136U 13015G   23338.84995969  .00159357  00000+0  14728-2 0  9993
2 39136  64.8566 130.3528 0018102 263.6327  96.2762 15.66615076588604
NEE-01 PEGASO           
1 39151U 13018B   23339.25933898  .00003463  00000+0  42152-3 0  9991
2 39151  98.0216  89.9884 0014784 318.4991  41.5099 14.84028042573053
ESTCUBE 1               
1 39161U 13021C   23339.13689603  .00002454  00000+0  37003-3 0  9993
2 39161  97.8545  46.4792 0010104 134.5350 225.6686 14.75208182568360
POPACS 1                
1 39268U 13055D   23338.81651932  .00032836  00000+0  66159-3 0  9997
2 39268  80.9883  12.9299 0460896 354.3380   5.2708 14.78445323531548
POPACS 2                
1 39269U 13055E   23337.59177635  .00027512  00000+0  67689-3 0  9999
2 39269  81.0060  91.5128 0583240 199.1322 158.7135 14.48738546528275
POPACS 3                
1 39270U 13055F   23338.73493413  .00008403  00000+0  24092-3 0  9992
2 39270  81.0101 134.9894 0647559 321.4109  34.2412 14.31916493504947
ZACUBE-1 (TSHEPISOSAT)  
1 39417U 13066B   23339.36311051  .00004880  00000+0  53999-3 0  9997
2 39417  97.7097 295.4192 0055086  83.9302 276.8187 14.86692225542618
WNISAT-1                
1 39423U 13066H   23339.45998613  .00001557  00000+0  31001-3 0  9997
2 39423  97.6796 184.5054 0170231 260.2955  97.8981 14.54628477532333
TRITON-1                
1 39427U 13066M   23339.45078732  .00004731  00000+0  69280-3 0  9999
2 39427  97.8397 258.9945 0105665 349.3035  10.5925 14.72317701537732
DELFI-N3XT              
1 39428U 13066N   23339.35553850  .00007469  00000+0  10215-2 0  9992
2 39428  97.8365 258.3540 0106984 359.5260   0.5831 14.74884485537523
GOMX-1                  
1 39430U 13066Q   23339.46300928  .00002197  00000+0  37897-3 0  9992
2 39430  97.7562 220.5006 0143637 150.4694 210.4720 14.62846758534565
CUBEBUG-2 (LO-74)       
1 39440U 13066AA  23339.40630635  .00003696  00000+0  46185-3 0  9993
2 39440  97.7928 282.8990 0072505 188.4970 171.5021 14.81076629540682
NEE-02 KRYSAOR          
1 39441U 13066AB  23339.36503611  .00002290  00000+0  30545-3 0  9994
2 39441  97.8031 279.3399 0075544 207.7639 151.9531 14.78602182540296
FUNCUBE-1 (AO-73)       
1 39444U 13066AE  23338.36952371  .00006925  00000+0  72574-3 0  9994
2 39444  97.6957 297.1938 0053034  71.2176 289.4785 14.88823620540944
UWE-3                   
1 39446U 13066AG  23338.82227635  .00004537  00000+0  53528-3 0  9990
2 39446  97.7581 288.4159 0064483 139.2802 221.3259 14.83708767539712
BRITE-CA1 (TORONTO)     
1 40020U 14033L   23339.34759146  .00001395  00000+0  23595-3 0  9990
2 40020  97.8495 118.8153 0084221 355.0249   5.0111 14.68590987506378
DUCHIFAT-1              
1 40021U 14033M   23339.44774277  .00010006  00000+0  77453-3 0  9995
2 40021  98.0759 309.4862 0015573  47.4604 312.7931 15.01576120514852
NANOSATC-BR1            
1 40024U 14033Q   23338.87581272  .00008058  00000+0  67115-3 0  9993
2 40024  98.0501 298.8038 0011573  72.2770 287.9714 14.98875751514479
QB50P1                  
1 40025U 14033R   23339.42066700  .00007014  00000+0  62595-3 0  9998
2 40025  98.0185 289.6624 0013113  86.3741 273.8978 14.96220162514231
QB50P2                  
1 40032U 14033Y   23339.37705812  .00005671  00000+0  51992-3 0  9990
2 40032  97.9846 282.4968 0011987  84.5790 275.6797 14.95254285514055
PERSEUS-M2              
1 40037U 14033AD  23338.98621301  .00001940  00000+0  21044-3 0  9991
2 40037  97.9157 264.4159 0014948 115.5461 244.7303 14.89278984513264
PERSEUS-M1              
1 40039U 14033AF  23338.97721571  .00002098  00000+0  22869-3 0  9993
2 40039  97.8987 260.9918 0014781 114.8920 245.3835 14.88985336513135
POLYITAN-1              
1 40042U 14033AJ  23339.42540796  .00008837  00000+0  75608-3 0  9992
2 40042  98.0302 292.1168 0014846  78.4355 281.8532 14.97767058514157
TIGRISAT                
1 40043U 14033AK  23339.45446639  .00002987  00000+0  41521-3 0  9994
2 40043  97.6743 146.0662 0055933 216.3654 143.3752 14.77490778508996
AEROCUBE 6A             
1 40045U 14033AM  23339.46667155  .00005697  00000+0  73077-3 0  9997
2 40045  97.6577 156.2186 0052423 198.5095 161.4212 14.80642605509195
AEROCUBE 6B             
1 40046U 14033AN  23339.47755219  .00005368  00000+0  67658-3 0  9991
2 40046  97.6533 154.7856 0051090 194.7405 165.2322 14.81449466509372
UKUBE-1                 
1 40074U 14037F   23339.31443678  .00006504  00000+0  67229-3 0  9999
2 40074  98.3382 252.9179 0004424  15.5094 344.6257 14.90487113509725
BRITE-PL2 (HEWELIUSZ)   
1 40119U 14049B   23338.95807781  .00002829  00000+0  31726-3 0  9999
2 40119  97.8834  74.7862 0015010 288.2161  71.7421 14.87547179503637
GRIFEX                  
1 40379U 15003D   23339.48217732  .00127295  00000+0  11807-2 0  9990
2 40379  99.0854 320.5675 0050446  36.2709 324.1948 15.65390316489926
CP10 (EXOCUBE)          
1 40380U 15003E   23338.73212508  .00057402  00000+0  10601-2 0  9998
2 40380  99.0969 305.6025 0077757  79.8087 281.1915 15.45547414488942
EXACTVIEW 9             
1 40936U 15052G   23337.37390617  .00004275  00000+0  47269-3 0  9997
2 40936   6.0043 317.1808 0009922 175.0669 184.9556 14.79456790442348
AEROCUBE 5C             
1 40965U 15058B   23339.14317046  .00005078  00000+0  52266-3 0  9992
2 40965  64.7714 239.3750 0174023  10.5886 349.8808 14.80782081228134
AEROCUBE 7              
1 40966U 15058C   23339.09486399  .00006263  00000+0  62522-3 0  9998
2 40966  64.7698 234.8001 0170547  10.3228 350.1307 14.82085475228190
GALASSIA                
1 41170U 15077E   23338.23821174  .00536744  00000+0  19827-2 0  9997
2 41170  14.9826 348.6909 0004092 135.3544 224.7116 15.85496370442544
VELOX-II                
1 41171U 15077F   23338.73453175  .00043318  00000+0  10845-2 0  9996
2 41171  14.9888 129.2079 0005006  97.1232 262.9661 15.38099898441392
HORYU-4                 
1 41340U 16012D   23338.87599013  .00009723  00000+0  55796-3 0  9998
2 41340  31.0013 162.9994 0010284 154.4238 205.6911 15.11222436428537
E-ST@R-II               
1 41459U 16025D   23339.42612595  .00059511  00000+0  10871-2 0  9990
2 41459  98.1590 199.6979 0075157 216.3604 143.2525 15.46058198419197
RAVAN                   
1 41849U 16067B   23338.76296546  .00010662  00000+0  67381-3 0  9992
2 41849  98.0506 140.9175 0014422 335.6150  24.4394 15.09158666386469
CELTEE 1                
1 41850U 16067C   23338.90031050  .00005568  00000+0  41119-3 0  9997
2 41850  98.0835 134.0707 0002210 102.8797 257.2674 15.03678540386058
OPTICUBE 04             
1 41851U 16067D   23338.86753499  .00002542  00000+0  20406-3 0  9996
2 41851  98.0497 131.2496 0013823 355.6352   4.4748 15.00968891385921
AEROCUBE 8D             
1 41852U 16067E   23338.67916912  .00006352  00000+0  45966-3 0  9998
2 41852  98.0866 133.1763 0006490  49.4767 310.7022 15.04375448385977
AEROCUBE 8C             
1 41853U 16067F   23338.41729468  .00005877  00000+0  42662-3 0  9990
2 41853  98.0678 131.9879 0008294 347.8238  12.2785 15.04277131385920
PROMETHEUS 2-1          
1 41854U 16067G   23339.41434096  .00011037  00000+0  68188-3 0  9998
2 41854  98.0841 137.7064 0015312   1.4944 358.6327 15.09966557386280
